OPTICUBE 04             
1 41851U 16067D   19050.21737817  .00000571  00000-0  55163-4 0  9997
2 41851  97.9154 146.4224 0010418  67.9308 292.3018 14.96764153124048
AEROCUBE 8D             
1 41852U 16067E   19050.21173375  .00000747  00000-0  70790-4 0  9999
2 41852  97.9164 146.2435 0011065  68.1055 292.1341 14.96642801124023
AEROCUBE 8C             
1 41853U 16067F   19050.49921470 -.00000162  00000-0 -89218-5 0  9996
2 41853  97.9165 146.4802 0011395  66.7307 293.5112 14.96609570124066
PROMETHEUS 2-1          
1 41854U 16067G   19050.21489414  .00000873  00000-0  81535-4 0  9994
2 41854  97.9171 146.2770 0011768  68.7999 291.4478 14.96787508124025
PROMETHEUS 2-3          
1 41855U 16067H   19050.48497421  .00000809  00000-0  75913-4 0  9993
2 41855  97.9175 146.5618 0011966  67.8524 292.3966 14.96790949124067
INS-1B                  
1 41954U 17008G   19049.78256346  .00001112  00000-0  49344-4 0  9996
2 41954  97.4154 116.3285 0008773 197.5854 162.5081 15.23623782111549
BGUSAT                  
1 41999U 17008BD  19050.12547392  .00001841  00000-0  75346-4 0  9999
2 41999  97.4212 118.5573 0007437 210.9531 149.1270 15.25586577111065
DIDO-2                  
1 42000U 17008BE  19050.42810437  .00000861  00000-0  38839-4 0  9996
2 42000  97.4166 117.4930 0007585 214.6699 145.4045 15.23666574111043
PEASSS                  
1 42015U 17008BV  19049.74278530  .00001029  00000-0  44666-4 0  9999
2 42015  97.4171 117.5929 0005307 220.9989 139.0850 15.24567487111470
AL-FARABI 1             
1 42016U 17008BW  19049.65707256  .00001284  00000-0  54157-4 0  9991
2 42016  97.4183 117.9188 0005205 220.0864 139.9990 15.25122008111601
NAYIF-1 (EO-88)         
1 42017U 17008BX  19050.43435438  .00001353  00000-0  56836-4 0  9993
2 42017  97.4179 118.6981 0005229 217.4804 142.6070 15.25154245111749
HAVELSAT                
1 42700U 98067LH  19050.49699068  .00568510  18466-3  50843-3 0  9995
2 42700  51.6177 148.4050 0007712 359.8934   0.2078 16.12114708101181
CXBN-2                  
1 42704U 98067LM  19050.48015949  .00510946  14538-3  50975-3 0  9990
2 42704  51.6215 150.6488 0007811 357.4973   2.6001 16.10489003101076
PHOENIX                 
1 42706U 98067LP  19050.52311335  .00055652  00000-0  23180-3 0  9997
2 42706  51.6273 163.1985 0002479   2.3873 357.7142 15.85136723100903
QBEE50-LTU-OC           
1 42708U 98067LR  19050.52316574  .00683806  27655-3  55947-3 0  9991
2 42708  51.6170 149.3527 0008279 358.0769   2.0213 16.13404541101030
ALTAIR PATHFINDER       
1 42711U 98067LS  19050.50306929  .00022907  00000-0  16819-3 0  9992
2 42711  51.6329 184.3276 0003119  34.1170 326.0028 15.73017473100284
SHARC                   
1 42712U 98067LT  19050.55205464  .00078650  00000-0  36127-3 0  9990
2 42712  51.6309 179.3962 0002171 349.2686  10.8270 15.82938943100593
ZA-AEROSAT              
1 42713U 98067LU  19050.53681047  .00049112  00000-0  22375-3 0  9995
2 42713  51.6329 168.6330 0002585   9.3375 350.7675 15.83301722100498
CSUNSAT1                
1 42715U 98067LW  19050.52257513  .00066428  00000-0  25872-3 0  9997
2 42715  51.6302 165.5033 0003465  11.7868 348.3217 15.86451635100531
SPACECUBE               
1 42717U 98067LY  19050.53419747  .00536937  16118-3  52402-3 0  9995
2 42717  51.6118 150.0566 0007636 358.3430   1.7558 16.10821253100103
NJUST-1                 
1 42722U 98067MB  19050.49260801  .00039910  00000-0  21338-3 0  9994
2 42722  51.6375 173.5735 0003334  68.0117 339.8099 15.79930721 99499
LILACSAT-1 (LO-90)      
1 42725U 98067ME  19050.51219274  .00138043  18575-4  35942-3 0  9991
2 42725  51.6313 159.8991 0003371   1.7412  86.5238 15.94728499 99583
NSIGHT                  
1 42726U 98067MF  19049.90451602  .00016483  00000-0  15885-3 0  9993
2 42726  51.6365 199.2809 0004809  78.5561 281.5975 15.66657907 99018
SNUSAT-1B               
1 42727U 98067MG  19050.54516627  .00122672  16944-4  33787-3 0  9992
2 42727  51.6268 160.2075 0004658  14.5669 345.5472 15.93722793 99542
SNUSAT-1                
1 42733U 98067MN  19050.52851649  .00216651  30841-4  41018-3 0  9992
2 42733  51.6233 155.5053 0006259   3.9809 356.1250 16.00271921 99498
BEEAGLESAT              
1 42736U 98067MR  19050.54712569  .00069052  00000-0  25209-3 0  9999
2 42736  51.6290 164.0782 0002553  49.1324 310.9902 15.87760063 99446
UCLSAT                  
1 42765U 17036A   19049.72991203  .00001037  00000-0  47800-4 0  9991
2 42765  97.3683 110.2181 0010033 294.8913  65.1280 15.22434172 92216
LITUANICASAT-2          
1 42768U 17036D   19049.70497771  .00001608  00000-0  72711-4 0  9996
2 42768  97.3712 109.7522 0013694 282.6035  77.3670 15.22293980 92050
AALTO-1                 
1 42775U 17036L   19049.74859960  .00000673  00000-0  33259-4 0  9995
2 42775  97.3672 109.2504 0012448 282.5200  77.4643 15.21129068 91972
URSA MAIOR              
1 42776U 17036M   19050.11383438  .00000698  00000-0  34301-4 0  9997
2 42776  97.3679 109.7187 0012262 280.9269  79.0587 15.21247480 92035
COMPASS 2               
1 42777U 17036N   19049.73467125  .00001382  00000-0  62606-4 0  9990
2 42777  97.3712 110.2177 0011038 284.4223  75.5788 15.22486443 92016
DIAMOND RED             
1 42783U 17036U   19049.93148430  .00000823  00000-0  39087-4 0  9990
2 42783  97.3683 110.1104 0010686 294.3739  65.6381 15.21942764 92032
PEGASUS                 
1 42784U 17036V   19049.73511276  .00000947  00000-0  44213-4 0  9995
2 42784  97.3687 110.0821 0010587 294.9878  65.0258 15.22203723 92013
DIAMOND GREEN           
1 42785U 17036W   19049.73303523  .00000843  00000-0  39966-4 0  9994
2 42785  97.3686 109.9365 0010591 295.9198  64.0946 15.21941765 92077
DIAMOND BLUE            
1 42786U 17036X   19049.92928200  .00000800  00000-0  38106-4 0  9999
2 42786  97.3685 110.1279 0010428 295.4847  64.5310 15.21942159 92102
NUDTSAT                 
1 42787U 17036Y   19050.52584325  .00001510  00000-0  67083-4 0  9999
2 42787  97.3727 111.3517 0011222 297.4895  62.5201 15.23030258 92002
SUCHAI                  
1 42788U 17036Z   19050.16708018  .00001125  00000-0  51398-4 0  9991
2 42788  97.3689 110.7282 0010148 292.6360  67.3803 15.22566528 92163
SKCUBE                  
1 42789U 17036AA  19049.71583951  .00001048  00000-0  48213-4 0  9994
2 42789  97.3687 110.2503 0010037 294.6153  65.4037 15.22488090 92011
VZLUSAT-1               
1 42790U 17036AB  19049.72456717  .00001412  00000-0  62903-4 0  9993
2 42790  97.3698 110.5693 0009602 293.9504  66.0727 15.23034779 92033
ROBUSTA-1B              
1 42792U 17036AD  19049.72525930  .00001102  00000-0  50314-4 0  9998
2 42792  97.3687 110.3769 0009603 295.6104  64.4140 15.22649590 92034
CICERO 6                
1 42793U 17036AE  19049.82310543  .00000751  00000-0  35566-4 0  9993
2 42793  97.3673 110.3477 0008860 297.4194  62.6141 15.22342367 92111
D-SAT                   
1 42794U 17036AF  19049.68421810  .00000403  00000-0  40437-4 0  9995
2 42794  97.5578  99.5557 0126797 180.9167 179.1840 14.91022042 90456
TOKI                    
1 42820U 98067MU  19049.79307309  .00084229  00000-0  33149-3 0  9995
2 42820  51.6297 172.6030 0002817 354.8628   5.2347 15.86148385 92721
MAZAALAI (NUMSAT-1)     
1 42822U 98067MW  19050.54383552  .00065652  00000-0  27433-3 0  9994
2 42822  51.6314 170.1566 0002851   6.2579 353.8460 15.85002765 92808
BRAC ONNESHA            
1 42823U 98067MX  19049.80554621  .00079326  00000-0  32170-3 0  9996
2 42823  51.6281 173.4641 0003524  17.2948 342.8175 15.85548693 92695
NIGERIAEDUSAT-1         
1 42824U 98067MY  19050.52618523  .00061280  00000-0  25948-3 0  9995
2 42824  51.6323 170.8527 0003459  27.3658 332.7527 15.84750489 92780
CORVUS BC2              
1 42846U 17042X   19050.49915913 -.00000017  00000-0  36699-5 0  9991
2 42846  97.5794 309.1573 0011200  91.9484 268.3018 14.91922943 87247
CORVUS BC1              
1 42847U 17042Y   19050.19211816  .00000320  00000-0  36872-4 0  9998
2 42847  97.5795 308.9490 0010807  92.4155 267.8301 14.92022839 87196
SILU-1 (SILKROAD 1)     
1 42903U 17021F   19049.98544637  .00099996  11979-4  27223-3 0  9990
2 42903  42.7688 255.1449 0017753 270.5901 234.2171 15.93396641 88960
MIRATA                  
1 43015U 17073C   19049.78770168  .00000582  00000-0  51122-4 0  9998
2 43015  97.7180 335.7053 0255977 188.1369 171.5656 14.78701804 67570
MAKERSAT 0              
1 43016U 17073D   19049.78509566  .00000360  00000-0  33745-4 0  9996
2 43016  97.7212 335.8879 0257932 188.3419 171.3466 14.78536886 67567
ASTERIA                 
1 43020U 98067NH  19049.92743172  .00011800  00000-0  11963-3 0  9990
2 43020  51.6406 209.3113 0002229  27.5972 332.5141 15.65730869 71062
DELLINGR (RBLE)         
1 43021U 98067NJ  19050.52761673  .00007537  00000-0  93947-4 0  9990
2 43021  51.6375 213.2412 0002167  20.9300 339.1782 15.61020377 71063
OSIRIS-3U               
1 43027U 98067NL  19050.51001582  .00334464  58203-4  64554-3 0  9996
2 43027  51.6304 178.2555 0007406 335.2580  24.8074 15.99828124 71409
AEROCUBE 7B (OCSD B)    
1 43042U 17071F   19049.90427393  .00002831  00000-0  78767-4 0  9992
2 43042  51.6379 278.2123 0005471  84.3996 275.7613 15.40391628 67617
AEROCUBE 7C (OCSD C)    
1 43043U 17071G   19050.09906363  .00002585  00000-0  72804-4 0  9996
2 43043  51.6381 277.2748 0005583  86.3904 273.7719 15.40385884 67610
CHEFSAT                 
1 43044U 17071H   19049.88152041  .00004883  00000-0  12062-3 0  9990
2 43044  51.6382 275.1503 0005377  86.5915 273.5685 15.42379570 67621
ASGARDIA 1              
1 43049U 17071N   19050.19038109  .00002318  00000-0  66056-4 0  9993
2 43049  51.6386 276.4029 0003131 103.4303 256.7031 15.40498395 67626
ISARA                   
1 43050U 17071P   19049.92658917  .00003520  00000-0  90795-4 0  9992
2 43050  51.6376 275.4234 0003017 101.7257 258.4067 15.41971586 67623
